KUIPER-00133            
1 65764U 25217C   25364.28552067  .00003744  00000+0  51940-3 0  9999
2 65764  51.9045   0.0037 0012062  89.0147 271.2198 14.79954190 14468
KUIPER-00139            
1 65765U 25217D   25364.38092263  .00017275  00000+0  13215-2 0  9994
2 65765  51.8867 351.1868 0008874  80.6855 279.5120 15.01954874 14596
KUIPER-00142            
1 65766U 25217E   25364.66670139 -.00968668  00000+0 -85831-1 0  9995
2 65766  51.8904 341.7638 0002550 112.3140  54.0896 14.98586596  5092
KUIPER-00145            
1 65767U 25217F   25364.66670139 -.00994157  00000+0 -10669+0 0  9993
2 65767  51.9083 343.7988 0008277  76.8635  24.7670 14.91149773  4444
KUIPER-00147            
1 65768U 25217G   25364.66670139 -.00018553  00000+0 -19031-2 0  9996
2 65768  51.8967 346.2517 0011735  84.2928 231.6857 14.89553006  5769
KUIPER-00148            
1 65769U 25217H   25364.42241944  .00027579  00000+0  17437-2 0  9993
2 65769  51.8784 345.5901 0010329 104.6219 255.5902 15.08784581 14676
KUIPER-00150            
1 65770U 25217J   25364.42322414  .00000599  00000+0  10752-3 0  9994
2 65770  51.9039 356.8937 0000394 120.3963 239.7038 14.79939807 14515
KUIPER-00151            
1 65771U 25217K   25364.66670139 -.00035105  00000+0 -44404-2 0  9994
2 65771  51.9019 348.3361 0000781  95.5623  68.1989 14.81405846  5600
